COSMOS 2251 DEB         
1 34977U 93036AFG 17345.70110991  .00001155  00000-0  31467-3 0  9995
2 34977  74.0290 202.1723 0055954 279.2699  80.2135 14.47692067452380
